OBJECT_NAME,OBJECT_ID,EPOCH,MEAN_MOTION,ECCENTRICITY,INCLINATION,RA_OF_ASC_NODE,ARG_OF_PERICENTER,MEAN_ANOMALY,EPHEMERIS_TYPE,CLASSIFICATION_TYPE,NORAD_CAT_ID,ELEMENT_SET_NO,REV_AT_EPOCH,BSTAR,MEAN_MOTION_DOT,MEAN_MOTION_DDOT
INTELSAT 23 (IS-23),2012-057A,2026-07-15T21:40:22.272384,1.00268345,.00004672,0.0177,28.0219,205.7521,332.0704,0,U,38867,999,5024,0,-.295E-5,0
FM-6,2013-058A,2026-07-13T23:10:32.594592,1.00270909,.00013903,0.0142,33.4803,144.8411,344.7900,0,U,39360,999,4634,0,-.21E-6,0
INTELSAT 30 (IS-30),2014-062A,2026-07-15T21:28:23.363040,1.00269522,.00014155,0.0195,54.0858,333.0622,133.6241,0,U,40271,999,708,0,-.161E-5,0
DIRECTV 14,2014-078B,2026-07-15T12:14:38.599872,1.00267237,.000069,0.0110,40.7880,304.5925,32.3918,0,U,40333,999,4232,0,-.135E-5,0
DIRECTV 15,2015-026A,2026-07-14T16:20:59.066880,1.00271323,.00000994,0.0176,71.4979,242.5429,120.8693,0,U,40663,999,4073,0,-.111E-5,0
SKY MEXICO-1,2015-026B,2026-07-15T21:33:00.420192,1.00269935,.00024051,0.0159,45.6386,90.7365,41.8013,0,U,40664,999,4074,0,-.245E-5,0
INTELSAT 34 (IS-34),2015-039A,2026-07-15T19:57:00.516672,1.00269460,.00004038,0.0104,10.8625,353.5222,173.0412,0,U,40874,999,3992,0,-.296E-5,0
INTELSAT 31 (IS-31),2016-035A,2026-07-15T21:28:15.874752,1.00270217,.00011599,0.0150,294.7863,0.3168,225.6434,0,U,41581,999,3697,0,-.161E-5,0
INTELSAT 36 (IS-36),2016-053A,2026-07-15T22:14:55.773024,1.00270528,.00023604,0.0121,36.5367,303.0721,356.3616,0,U,41747,999,3624,0,-.34E-6,0
INTELSAT 32E (IS-32E),2017-007B,2026-07-15T16:34:59.095200,1.00266215,.00002708,0.0237,56.8760,287.4334,154.7925,0,U,41945,999,3451,0,0,0
INTELSAT 35E (IS-35E),2017-041A,2026-07-15T13:14:38.726304,1.00266637,.0001683,0.0261,63.1048,46.6502,347.7991,0,U,42818,999,3310,0,0,0
INTELSAT 37E (IS-37E),2017-059A,2026-07-15T20:07:39.124128,1.00269761,.00026115,0.0169,50.3308,73.3296,93.9082,0,U,42950,999,3235,0,-.152E-5,0
AZERSPACE 2 (IS-38),2018-074A,2026-07-15T20:25:42.166272,1.00273206,.00016179,0.0246,58.5053,67.4827,159.2539,0,U,43632,999,2873,0,0,0
HORIZONS-3E,2018-074B,2026-07-13T15:21:38.465856,1.00270118,.00009408,0.0498,224.9289,53.6947,52.2963,0,U,43633,999,2860,0,-.35E-6,0
AT&T T-16,2019-034A,2026-07-14T19:46:46.069248,1.00268430,.00006162,0.0157,70.7114,248.2150,169.5701,0,U,44333,999,2591,0,-.123E-5,0
INTELSAT 39 (IS-39),2019-049B,2026-07-15T22:13:03.453024,1.00269318,.00009304,0.0243,57.5655,281.1474,350.2709,0,U,44476,999,2541,0,0,0
GALAXY 30 (G-30),2020-056C,2026-07-15T16:11:46.320288,1.00271950,.00019989,0.0143,60.1021,55.6729,295.6777,0,U,46114,999,2157,0,.27E-6,0
GALAXY 33 (G-33),2022-128A,2026-07-15T17:52:10.065216,1.00272482,.00018048,0.0109,51.6708,68.9157,308.0435,0,U,54026,999,1402,0,.69E-6,0
GALAXY 34 (G-34),2022-128B,2026-07-15T16:10:38.928288,1.00276610,.00015126,0.0124,38.4274,92.6811,276.0718,0,U,54027,999,1419,0,.48E-6,0
GALAXY 31 (G-31),2022-153A,2026-07-15T21:20:46.593024,1.00271370,.00010006,0.0132,88.5751,30.9418,13.3854,0,U,54243,999,742,0,.3E-7,0
GALAXY 32 (G-32),2022-153B,2026-07-15T19:46:24.033792,1.00271405,.00013172,0.0077,41.0430,359.1234,99.0870,0,U,54244,999,1343,0,-.184E-5,0
GALAXY 35 (G-35),2022-170A,2026-07-15T21:28:53.315328,1.00272330,.00017836,0.0160,70.1971,46.4378,46.2025,0,U,54741,999,1318,0,-.173E-5,0
GALAXY 36 (G-36),2022-170B,2026-07-15T14:39:27.997344,1.00270281,.00023966,0.0054,142.8857,316.1422,325.2844,0,U,54742,999,1305,0,-.195E-5,0
GALAXY 37 (G-37),2023-112A,2026-07-13T23:07:32.881728,1.00271325,.00017395,0.0218,73.5270,44.1230,34.0616,0,U,57493,999,1081,0,.42E-6,0
